{
    "type": "FeatureCollection",
    "features": [
        {
            "type": "Feature",
            "properties": {
                "hindcast_hours": 12,
                "origin_lat": 19.495786,
                "origin_lon": 70.709083,
                "final_uncertainty_radius_m": 3766.96
            },
            "geometry": {
                "type": "Polygon",
                "coordinates": [
                    [
                        [
                            71.02928936697171,
                            19.460811659811284
                        ],
                        [
                            71.00017992047903,
                            19.460809319509753
                        ],
                        [
                            70.97107047440477,
                            19.460806979208527
                        ],
                        [
                            70.94196102874896,
                            19.460804638907607
                        ],
                        [
                            70.9128515835116,
                            19.46080229860699
                        ],
                        [
                            70.88374213869268,
                            19.460799958306676
                        ],
                        [
                            70.85463269429222,
                            19.46079761800666
                        ],
                        [
                            70.82552325031018,
                            19.460795277706943
                        ],
                        [
                            70.7964138067466,
                            19.460792937407533
                        ],
                        [
                            70.76730436360145,
                            19.460790597108424
                        ],
                        [
                            70.73819492087475,
                            19.46078825680962
                        ],
                        [
                            70.7090854785665,
                            19.460785916511124
                        ],
                        [
                            70.70565486511646,
                            19.460954175268682
                        ],
                        [
                            70.7022572632501,
                            19.461457882734283
                        ],
                        [
                            70.69892539373075,
                            19.46229218792968
                        ],
                        [
                            70.69569134428322,
                            19.46344905603976
                        ],
                        [
                            70.69258626057164,
                            19.464917345792216
                        ],
                        [
                            70.68964004624955,
                            19.466682916754085
                        ],
                        [
                            70.68688107497142,
                            19.468728765511838
                        ],
                        [
                            70.68433591713888,
                            19.47103518942357
                        ],
                        [
                            70.6820290840132,
                            19.473579976366192
                        ],
                        [
                            70.67998279165839,
                            19.47633861865032
                        ],
                        [
                            70.67821674698847,
                            19.479284549042735
                        ],
                        [
                            70.676747957979,
                            19.482389396623343
                        ],
                        [
                            70.6755905698711,
                            19.485623260012666
                        ],
                        [
                            70.67475572894492,
                            19.48895499533845
                        ],
                        [
                            70.67425147517496,
                            19.492352516168204
                        ],
                        [
                            70.67408266480065,
                            19.495783102519052
                        ],
                        [
                            70.67425092355822,
                            19.4992137159691
                        ],
                        [
                            70.67475463102382,
                            19.502611317835445
                        ],
                        [
                            70.67558893621921,
                            19.50594318735481
                        ],
                        [
                            70.6767458043293,
                            19.509177236802326
                        ],
                        [
                            70.67821409408175,
                            19.51228232051391
                        ],
                        [
                            70.67997966504362,
                            19.51522853483601
                        ],
                        [
                            70.68202551380138,
                            19.51798750611413
                        ],
                        [
                            70.68433193771311,
                            19.520532663946664
                        ],
                        [
                            70.68687672465573,
                            19.522839497072354
                        ],
                        [
                            70.68963536693985,
                            19.52488578942716
                        ],
                        [
                            70.69258129733227,
                            19.526651834097088
                        ],
                        [
                            70.69568614491287,
                            19.528120623106545
                        ],
                        [
                            70.6989200083022,
                            19.52927801121445
                        ],
                        [
                            70.70225174362798,
                            19.530112852140633
                        ],
                        [
                            70.70564926445773,
                            19.5306171059106
                        ],
                        [
                            70.70907985080859,
                            19.530785916284895
                        ],
                        [
                            70.73818929311652,
                            19.530788256583392
                        ],
                        [
                            70.76729873584257,
                            19.530790596882195
                        ],
                        [
                            70.79640817898706,
                            19.530792937181303
                        ],
                        [
                            70.82551762255,
                            19.530795277480713
                        ],
                        [
                            70.85462706653138,
                            19.53079761778043
                        ],
                        [
                            70.8837365109312,
                            19.530799958080447
                        ],
                        [
                            70.91284595574948,
                            19.53080229838076
                        ],
                        [
                            70.94195540098619,
                            19.530804638681378
                        ],
                        [
                            70.97106484664134,
                            19.530806978982298
                        ],
                        [
                            71.00017429271495,
                            19.530809319283524
                        ],
                        [
                            71.02928373920699,
                            19.530811659585055
                        ],
                        [
                            71.05839318611748,
                            19.530813999886885
                        ],
                        [
                            71.06182379956755,
                            19.530645741129675
                        ],
                        [
                            71.06522140143394,
                            19.53014203366442
                        ],
                        [
                            71.06855327095339,
                            19.529307728469362
                        ],
                        [
                            71.07178732040103,
                            19.528150860359613
                        ],
                        [
                            71.07489240411276,
                            19.52668257060747
                        ],
                        [
                            71.07783861843504,
                            19.524916999645903
                        ],
                        [
                            71.08059758971336,
                            19.52287115088843
                        ],
                        [
                            71.08314274754613,
                            19.520564726976954
                        ],
                        [
                            71.08544958067209,
                            19.51801994003457
                        ],
                        [
                            71.08749587302718,
                            19.515261297750648
                        ],
                        [
                            71.0892619176974,
                            19.512315367358415
                        ],
                        [
                            71.09073070670718,
                            19.509210519777955
                        ],
                        [
                            71.0918880948154,
                            19.505976656388754
                        ],
                        [
                            71.09272293574193,
                            19.50264492106305
                        ],
                        [
                            71.09322718951225,
                            19.49924740023335
                        ],
                        [
                            71.0933959998869,
                            19.495816813882517
                        ],
                        [
                            71.09322774112968,
                            19.492386200432456
                        ],
                        [
                            71.09272403366442,
                            19.488988598566056
                        ],
                        [
                            71.09188972846937,
                            19.48565672904661
                        ],
                        [
                            71.09073286035961,
                            19.482422679598972
                        ],
                        [
                            71.08926457060747,
                            19.479317595887238
                        ],
                        [
                            71.0874989996459,
                            19.476371381564963
                        ],
                        [
                            71.08545315088843,
                            19.47361241028663
                        ],
                        [
                            71.08314672697696,
                            19.471067252453864
                        ],
                        [
                            71.08060194003457,
                            19.468760419327914
                        ],
                        [
                            71.07784329775065,
                            19.46671412697283
                        ],
                        [
                            71.07489736735842,
                            19.4649480823026
                        ],
                        [
                            71.07179251977796,
                            19.463479293292828
                        ],
                        [
                            71.06855865638876,
                            19.462321905184595
                        ],
                        [
                            71.06522692106306,
                            19.461487064258073
                        ],
                        [
                            71.06182940023335,
                            19.46098281048776
                        ],
                        [
                            71.05839881388252,
                            19.460814000113114
                        ],
                        [
                            71.02928936697171,
                            19.460811659811284
                        ]
                    ]
                ]
            }
        }
    ]
}